{
  "norad_id": 55366,
  "name": "STARLINK-5654",
  "history": [
    {
      "epoch": "2026-03-28T13:06:53.438112",
      "apogee_km": 486.53990488096224,
      "perigee_km": 484.5353000765617,
      "latitude_deg": -21.390371716266152,
      "longitude_deg": 129.05937568005174,
      "semi_major_axis_km": 6863.674602478762,
      "eccentricity": 0.00014603,
      "inclination_deg": 43.0018,
      "raan_deg": 181.6587,
      "arg_perigee_deg": 283.2643,
      "mean_anomaly_deg": 76.8045,
      "mean_motion_rev_day": 15.26749312
    }
  ]
}